GSAT-29                 
1 43698U 18089A   26189.15400095  .00000100  00000+0  00000+0 0  9995
2 43698   0.0597 256.6864 0003200 185.1455 314.7709  1.00273737 27992
ES'HAIL 2               
1 43700U 18090A   26189.14819426  .00000159  00000+0  00000+0 0  9996
2 43700   0.0127 310.3975 0002347 203.2868 211.5859  1.00272740 27888
GEO-KOMPSAT-2A          
1 43823U 18100A   26188.95460777 -.00000328  00000+0  00000+0 0  9992
2 43823   0.0277 152.2719 0002290 309.6064 295.9585  1.00271978 27834
GSAT-11                 
1 43824U 18100B   26189.15772764 -.00000062  00000+0  00000+0 0  9993
2 43824   0.0665 264.5016 0007830 191.7678 320.6413  1.00271118 27684
GSAT-7A                 
1 43864U 18105A   26189.15547428  .00000042  00000+0  00000+0 0  9996
2 43864   0.0661  93.1513 0001796  11.1563 300.5488  1.00269640 27658
COSMOS 2533             
1 43867U 18107A   26188.86413821 -.00000022  00000+0  00000+0 0  9996
2 43867   0.0391 113.0014 0000075 203.4581 350.4542  1.00267650 27658
TJS-3                   
1 43874U 18110A   26188.67337470 -.00000202  00000+0  00000+0 0  9992
2 43874   2.5943  80.2497 0002425  83.8282 152.1612  1.00273933 27628
HELLAS-SAT 4 & SGS-1    
1 44034U 19007A   26189.00825203  .00000168  00000+0  00000+0 0  9991
2 44034   0.0627 132.0010 0005642  15.0470 180.9091  1.00267272 27579
GSAT-31                 
1 44035U 19007B   26189.15261427  .00000140  00000+0  00000+0 0  9990
2 44035   0.0055   9.8577 0000256 242.3794 136.7133  1.00273020 27174
NUSANTARA SATU          
1 44048U 19009A   26189.15739323 -.00000220  00000+0  00000+0 0  9991
2 44048   0.0327 129.5529 0004631 355.8823   3.3463  1.00270358 26985
ZHONGXING-6C            
1 44067U 19012A   26188.66990803 -.00000320  00000+0  00000+0 0  9994
2 44067   0.0734  73.7189 0014252 338.7713 244.7029  1.00268204 26940
WGS 10 (USA 291)        
1 44071U 19014A   26189.01241205  .00000062  00000+0  00000+0 0  9998
2 44071   0.0190  43.8038 0000075 191.4714 115.4681  1.00272451 26829
TIANLIAN 2-01           
1 44076U 19017A   26189.15833431 -.00000092  00000+0  00000+0 0  9993
2 44076   0.5908  83.0889 0001396  70.6312 266.4216  1.00271295 26854
ARABSAT-6A              
1 44186U 19021A   26189.14914758  .00000168  00000+0  00000+0 0  9994
2 44186   0.0457   4.6799 0001405 262.9119 102.6925  1.00267470 26365
BEIDOU-3 IGSO-1         
1 44204U 19023A   26188.39613446 -.00000208  00000+0  00000+0 0  9999
2 44204  58.7230  37.4430 0025584 223.9763 285.4775  1.00285689  7417
BEIDOU-2 G8             
1 44231U 19027A   26188.88659801 -.00000233  00000+0  00000+0 0  9990
2 44231   1.7072  74.5162 0009917 284.7279  30.2695  1.00274660 26282
YAMAL 601               
1 44307U 19031A   26189.15278762  .00000135  00000+0  00000+0 0  9993
2 44307   0.0175  82.5299 0002424  22.0754 285.5094  1.00271572 26130
AT&T T-16               
1 44333U 19034A   26188.90921810 -.00000100  00000+0  00000+0 0  9999
2 44333   0.0156  67.5942 0000490 240.6770 204.0501  1.00268746 25848
EUTELSAT 7C             
1 44334U 19034B   26189.16919749  .00000063  00000+0  00000+0 0  9994
2 44334   0.0752 180.4228 0003245 273.3817 260.2481  1.00270701  7046
BEIDOU-3 IGSO-2         
1 44337U 19035A   26188.81033301 -.00000072  00000+0  00000+0 0  9991
2 44337  55.2504 158.6819 0039633 216.3902 321.3360  1.00260158 25872
COSMOS 2539             
1 44457U 19048A   26188.78900053  .00000090  00000+0  00000+0 0  9990
2 44457   0.0323 101.4867 0002189  59.2835  60.9987  1.00234210 25439
EDRS-C                  
1 44475U 19049A   26189.15739323 -.00000247  00000+0  00000+0 0  9998
2 44475   0.0020  63.0295 0000977  48.9139  13.3308  1.00269207 25428
INTELSAT 39 (IS-39)     
1 44476U 19049B   26189.15538763  .00000000  00000+0  00000+0 0  9990
2 44476   0.0225  26.0776 0000850 295.0726  82.8492  1.00269623 25333
AMOS-17                 
1 44479U 19050A   26189.14646090  .00000124  00000+0  00000+0 0  9994
2 44479   0.0219 330.1539 0001430 138.9396 246.7124  1.00271030 25392
AEHF-5 (USA 292)        
1 44481U 19051A   26189.09033558 -.00000241  00000+0  00000+0 0  9992
2 44481   1.4360 337.7530 0065474 358.6303  75.1843  1.00266966 25471
EUTELSAT 5 WEST B       
1 44624U 19067A   26189.17475236 -.00000027  00000+0  00000+0 0  9992
2 44624   0.0650 341.7961 0003132 126.6342 235.6075  1.00271339 24647
MEV-1                   
1 44625U 19067B   26167.92963140 -.00000149  00000+0  00000+0 0  9993
2 44625   0.8740 268.9828 0002794 179.8034 307.2103  1.00269616 61744
TJS-4                   
1 44637U 19070A   26189.15963432 -.00000155  00000+0  00000+0 0  9990
2 44637   0.0654  87.3018 0003477 320.8916  18.9411  1.00270502 24746
TIBA-1                  
1 44800U 19080A   26189.07880883  .00000171  00000+0  00000+0 0  9999
2 44800   0.0506 354.4463 0002187 135.5050 219.9858  1.00275127 24266
INMARSAT GX5            
1 44801U 19080B   26189.16919749  .00000090  00000+0  00000+0 0  9994
2 44801   0.0369  20.1925 0002126  82.7521 255.1071  1.00271478  6997
JCSAT-18 (KACIFIC 1)    
1 44868U 19091A   26188.67380806 -.00000185  00000+0  00000+0 0  9996
2 44868   0.0442 223.8283 0000393 348.1645 106.2106  1.00271592 24218
