OBJECT_NAME,OBJECT_ID,EPOCH,MEAN_MOTION,ECCENTRICITY,INCLINATION,RA_OF_ASC_NODE,ARG_OF_PERICENTER,MEAN_ANOMALY,EPHEMERIS_TYPE,CLASSIFICATION_TYPE,NORAD_CAT_ID,ELEMENT_SET_NO,REV_AT_EPOCH,BSTAR,MEAN_MOTION_DOT,MEAN_MOTION_DDOT
GSAT-29,2018-089A,2026-07-08T03:41:45.682080,1.00273737,.00032,0.0597,256.6864,185.1455,314.7709,0,U,43698,999,2799,0,.1E-5,0
ES'HAIL 2,2018-090A,2026-07-08T03:33:23.984064,1.00272740,.0002347,0.0127,310.3975,203.2868,211.5859,0,U,43700,999,2788,0,.159E-5,0
GEO-KOMPSAT-2A,2018-100A,2026-07-07T22:54:38.111328,1.00271978,.000229,0.0277,152.2719,309.6064,295.9585,0,U,43823,999,2783,0,-.328E-5,0
GSAT-11,2018-100B,2026-07-08T03:47:07.668096,1.00271118,.000783,0.0665,264.5016,191.7678,320.6413,0,U,43824,999,2768,0,-.62E-6,0
GSAT-7A,2018-105A,2026-07-08T03:43:52.977792,1.00269640,.0001796,0.0661,93.1513,11.1563,300.5488,0,U,43864,999,2765,0,.42E-6,0
COSMOS 2533,2018-107A,2026-07-07T20:44:21.541344,1.00267650,.0000075,0.0391,113.0014,203.4581,350.4542,0,U,43867,999,2765,0,-.22E-6,0
TJS-3,2018-110A,2026-07-07T16:09:39.574080,1.00273933,.0002425,2.5943,80.2497,83.8282,152.1612,0,U,43874,999,2762,0,-.202E-5,0
HELLAS-SAT 4 & SGS-1,2019-007A,2026-07-08T00:11:52.975392,1.00267272,.0005642,0.0627,132.0010,15.0470,180.9091,0,U,44034,999,2757,0,.168E-5,0
GSAT-31,2019-007B,2026-07-08T03:39:45.872928,1.00273020,.0000256,0.0055,9.8577,242.3794,136.7133,0,U,44035,999,2717,0,.14E-5,0
NUSANTARA SATU,2019-009A,2026-07-08T03:46:38.775072,1.00270358,.0004631,0.0327,129.5529,355.8823,3.3463,0,U,44048,999,2698,0,-.22E-5,0
ZHONGXING-6C,2019-012A,2026-07-07T16:04:40.053792,1.00268204,.0014252,0.0734,73.7189,338.7713,244.7029,0,U,44067,999,2694,0,-.32E-5,0
WGS 10 (USA 291),2019-014A,2026-07-08T00:17:52.401120,1.00272451,.0000075,0.0190,43.8038,191.4714,115.4681,0,U,44071,999,2682,0,.62E-6,0
TIANLIAN 2-01,2019-017A,2026-07-08T03:48:00.084384,1.00271295,.0001396,0.5908,83.0889,70.6312,266.4216,0,U,44076,999,2685,0,-.92E-6,0
ARABSAT-6A,2019-021A,2026-07-08T03:34:46.350912,1.00267470,.0001405,0.0457,4.6799,262.9119,102.6925,0,U,44186,999,2636,0,.168E-5,0
BEIDOU-3 IGSO-1,2019-023A,2026-07-07T09:30:26.017344,1.00285689,.00255845,58.7230,37.4430,223.9763,285.4775,0,U,44204,999,741,0,-.208E-5,0
BEIDOU-2 G8,2019-027A,2026-07-07T21:16:42.068064,1.00274660,.0009917,1.7072,74.5162,284.7279,30.2695,0,U,44231,999,2628,0,-.233E-5,0
YAMAL 601,2019-031A,2026-07-08T03:40:00.850368,1.00271572,.0002424,0.0175,82.5299,22.0754,285.5094,0,U,44307,999,2613,0,.135E-5,0
AT&T T-16,2019-034A,2026-07-07T21:49:16.443840,1.00268746,.000049,0.0156,67.5942,240.6770,204.0501,0,U,44333,999,2584,0,-.1E-5,0
EUTELSAT 7C,2019-034B,2026-07-08T04:03:38.663136,1.00270701,.0003245,0.0752,180.4228,273.3817,260.2481,0,U,44334,999,704,0,.63E-6,0
BEIDOU-3 IGSO-2,2019-035A,2026-07-07T19:26:52.772064,1.00260158,.0039633,55.2504,158.6819,216.3902,321.3360,0,U,44337,999,2587,0,-.72E-6,0
COSMOS 2539,2019-048A,2026-07-07T18:56:09.645792,1.00234210,.0002189,0.0323,101.4867,59.2835,60.9987,0,U,44457,999,2543,0,.9E-6,0
EDRS-C,2019-049A,2026-07-08T03:46:38.775072,1.00269207,.0000977,0.0020,63.0295,48.9139,13.3308,0,U,44475,999,2542,0,-.247E-5,0
INTELSAT 39 (IS-39),2019-049B,2026-07-08T03:43:45.491232,1.00269623,.000085,0.0225,26.0776,295.0726,82.8492,0,U,44476,999,2533,0,0,0
AMOS-17,2019-050A,2026-07-08T03:30:54.221760,1.00271030,.000143,0.0219,330.1539,138.9396,246.7124,0,U,44479,999,2539,0,.124E-5,0
AEHF-5 (USA 292),2019-051A,2026-07-08T02:10:04.994112,1.00266966,.0065474,1.4360,337.7530,358.6303,75.1843,0,U,44481,999,2547,0,-.241E-5,0
EUTELSAT 5 WEST B,2019-067A,2026-07-08T04:11:38.603904,1.00271339,.0003132,0.0650,341.7961,126.6342,235.6075,0,U,44624,999,2464,0,-.27E-6,0
MEV-1,2019-067B,2026-06-16T22:18:40.152960,1.00269616,.00027946,0.8740,268.9828,179.8034,307.2103,0,U,44625,999,6174,0,-.149E-5,0
TJS-4,2019-070A,2026-07-08T03:49:52.405248,1.00270502,.0003477,0.0654,87.3018,320.8916,18.9411,0,U,44637,999,2474,0,-.155E-5,0
TIBA-1,2019-080A,2026-07-08T01:53:29.082912,1.00275127,.0002187,0.0506,354.4463,135.5050,219.9858,0,U,44800,999,2426,0,.171E-5,0
INMARSAT GX5,2019-080B,2026-07-08T04:03:38.663136,1.00271478,.0002126,0.0369,20.1925,82.7521,255.1071,0,U,44801,999,699,0,.9E-6,0
JCSAT-18 (KACIFIC 1),2019-091A,2026-07-07T16:10:17.016384,1.00271592,.0000393,0.0442,223.8283,348.1645,106.2106,0,U,44868,999,2421,0,-.185E-5,0
